{"type": "FeatureCollection", "features": [ {"type": "Feature", "properties": {"norad_id": 33980, "name": "COSMOS 2251 DEB", "group": "cosmos-2251-debris", "lat": 22.51323022584392, "lon": -108.82976119888558, "alt_km": 689.4615197607473, "timestamp": "2025-12-02T23:34:15.910346+00:00", "meta": {"OBJECT_NAME": "COSMOS 2251 DEB", "OBJECT_ID": "1993-036FP", "EPOCH": "2025-12-02T10:01:07.788000", "MEAN_MOTION": 14.58529651, "ECCENTRICITY": 0.0029289, "INCLINATION": 74.0214, "RA_OF_ASC_NODE": 79.0664, "ARG_OF_PERICENTER": 225.8008, "MEAN_ANOMALY": 207.1906, "EPHEMERIS_TYPE": 0, "CLASSIFICATION_TYPE": "U", "NORAD_CAT_ID": 33980, "ELEMENT_SET_NO": 999, "REV_AT_EPOCH": 88644, "BSTAR": 0.0011252, "MEAN_MOTION_DOT": 5.235e-05, "MEAN_MOTION_DDOT": 0}, "tle": {"line1": "1 33980U 93036FP  25336.41745125  .00005235  00000+0  11252-2 0  9999", "line2": "2 33980  74.0214  79.0664 0029289 225.8008 207.1906 14.58529651886441"}}, "geometry": {"type": "Point", "coordinates": [-108.82976119888558, 22.51323022584392]}}, {"type": "Feature", "properties": {"norad_id": 33982, "name": "COSMOS 2251 DEB", "group": "cosmos-2251-debris", "lat": -42.84518392366562, "lon": 3.1647418384386716, "alt_km": 717.4669097284232, "timestamp": "2025-12-02T23:34:15.910356+00:00", "meta": {"OBJECT_NAME": "COSMOS 2251 DEB", "OBJECT_ID": "1993-036FR", "EPOCH": "2025-12-02T06:00:19.495296", "MEAN_MOTION": 14.60152241, "ECCENTRICITY": 0.0074808, "INCLINATION": 74.0705, "RA_OF_ASC_NODE": 19.9187, "ARG_OF_PERICENTER": 67.536, "MEAN_ANOMALY": 2.6455, "EPHEMERIS_TYPE": 0, "CLASSIFICATION_TYPE": "U", "NORAD_CAT_ID": 33982, "ELEMENT_SET_NO": 999, "REV_AT_EPOCH": 89006, "BSTAR": 0.00041821, "MEAN_MOTION_DOT": 2.064e-05, "MEAN_MOTION_DDOT": 0}, "tle": {"line1": "1 33982U 93036FR  25336.25022564  .00002064  00000+0  41821-3 0  9991", "line2": "2 33982  74.0705  19.9187 0074808  67.5360   2.6455 14.60152241890060"}}, "geometry": {"type": "Point", "coordinates": [3.1647418384386716, -42.84518392366562]}}, {"type": "Feature", "properties": {"norad_id": 33983, "name": "COSMOS 2251 DEB", "group": "cosmos-2251-debris", "lat": -40.6445461915592, "lon": -0.4155849851956523, "alt_km": 719.4119144048482, "timestamp": "2025-12-02T23:34:15.910367+00:00", "meta": {"OBJECT_NAME": "COSMOS 2251 DEB", "OBJECT_ID": "1993-036FS", "EPOCH": "2025-12-02T12:45:18.456768", "MEAN_MOTION": 14.50601982, "ECCENTRICITY": 0.0021423, "INCLINATION": 74.0488, "RA_OF_ASC_NODE": 166.2175, "ARG_OF_PERICENTER": 270.2099, "MEAN_ANOMALY": 120.0351, "EPHEMERIS_TYPE": 0, "CLASSIFICATION_TYPE": "U", "NORAD_CAT_ID": 33983, "ELEMENT_SET_NO": 999, "REV_AT_EPOCH": 88481, "BSTAR": 0.00063744, "MEAN_MOTION_DOT": 2.48e-05, "MEAN_MOTION_DDOT": 0}, "tle": {"line1": "1 33983U 93036FS  25336.53146362  .00002480  00000+0  63744-3 0  9996", "line2": "2 33983  74.0488 166.2175 0021423 270.2099 120.0351 14.50601982884815"}}, "geometry": {"type": "Point", "coordinates": [-0.4155849851956523, -40.6445461915592]}}, {"type": "Feature", "properties": {"norad_id": 33984, "name": "COSMOS 2251 DEB", "group": "cosmos-2251-debris", "lat": 39.24397871542181, "lon": 172.3967780190294, "alt_km": 663.4001969328301, "timestamp": "2025-12-02T23:34:15.910377+00:00", "meta": {"OBJECT_NAME": "COSMOS 2251 DEB", "OBJECT_ID": "1993-036FT", "EPOCH": "2025-12-02T12:02:21.447168", "MEAN_MOTION": 14.66215855, "ECCENTRICITY": 0.0023762, "INCLINATION": 74.0101, "RA_OF_ASC_NODE": 6.8701, "ARG_OF_PERICENTER": 207.3945, "MEAN_ANOMALY": 276.4452, "EPHEMERIS_TYPE": 0, "CLASSIFICATION_TYPE": "U", "NORAD_CAT_ID": 33984, "ELEMENT_SET_NO": 999, "REV_AT_EPOCH": 88916, "BSTAR": 0.0010193, "MEAN_MOTION_DOT": 5.609e-05, "MEAN_MOTION_DDOT": 0}, "tle": {"line1": "1 33984U 93036FT  25336.50163712  .00005609  00000+0  10193-2 0  9997", "line2": "2 33984  74.0101   6.8701 0023762 207.3945 276.4452 14.66215855889169"}}, "geometry": {"type": "Point", "coordinates": [172.3967780190294, 39.24397871542181]}}, {"type": "Feature", "properties": {"norad_id": 33986, "name": "COSMOS 2251 DEB", "group": "cosmos-2251-debris", "lat": -54.53456720709737, "lon": 164.4890490786672, "alt_km": 781.252664290023, "timestamp": "2025-12-02T23:34:15.910387+00:00", "meta": {"OBJECT_NAME": "COSMOS 2251 DEB", "OBJECT_ID": "1993-036FV", "EPOCH": "2025-12-01T23:16:51.627936", "MEAN_MOTION": 14.4311158, "ECCENTRICITY": 0.00398909, "INCLINATION": 74.0364, "RA_OF_ASC_NODE": 322.6763, "ARG_OF_PERICENTER": 38.0925, "MEAN_ANOMALY": 344.0411, "EPHEMERIS_TYPE": 0, "CLASSIFICATION_TYPE": "U", "NORAD_CAT_ID": 33986, "ELEMENT_SET_NO": 999, "REV_AT_EPOCH": 87873, "BSTAR": 0.00087999302, "MEAN_MOTION_DOT": 2.956e-05, "MEAN_MOTION_DDOT": 0}, "tle": {"line1": "1 33986U 93036FV  25335.97004199  .00002956  00000+0  87999-3 0  9993", "line2": "2 33986  74.0364 322.6763 0039890  38.0925 344.0411 14.43111580878738"}}, "geometry": {"type": "Point", "coordinates": [164.4890490786672, -54.53456720709737]}}, {"type": "Feature", "properties": {"norad_id": 33990, "name": "COSMOS 2251 DEB", "group": "cosmos-2251-debris", "lat": -38.81530356560922, "lon": -71.74972590329638, "alt_km": 775.5935387751533, "timestamp": "2025-12-02T23:34:15.910397+00:00", "meta": {"OBJECT_NAME": "COSMOS 2251 DEB", "OBJECT_ID": "1993-036FZ", "EPOCH": "2025-12-02T08:31:04.815840", "MEAN_MOTION": 13.49939909, "ECCENTRICITY": 0.0407592, "INCLINATION": 73.9275, "RA_OF_ASC_NODE": 302.6666, "ARG_OF_PERICENTER": 324.8412, "MEAN_ANOMALY": 187.8817, "EPHEMERIS_TYPE": 0, "CLASSIFICATION_TYPE": "U", "NORAD_CAT_ID": 33990, "ELEMENT_SET_NO": 999, "REV_AT_EPOCH": 82589, "BSTAR": 0.0018673, "MEAN_MOTION_DOT": 1.965e-05, "MEAN_MOTION_DDOT": 0}, "tle": {"line1": "1 33990U 93036FZ  25336.35491685  .00001965  00000+0  18673-2 0  9992", "line2": "2 33990  73.9275 302.6666 0407592 324.8412 187.8817 13.49939909825897"}}, "geometry": {"type": "Point", "coordinates": [-71.74972590329638, -38.81530356560922]}}, {"type": "Feature", "properties": {"norad_id": 33992, "name": "COSMOS 2251 DEB", "group": "cosmos-2251-debris", "lat": 5.617028141685182, "lon": -1.8286277513854703, "alt_km": 688.7436433770781, "timestamp": "2025-12-02T23:34:15.910408+00:00", "meta": {"OBJECT_NAME": "COSMOS 2251 DEB", "OBJECT_ID": "1993-036GB", "EPOCH": "2025-12-02T12:46:37.168032", "MEAN_MOTION": 14.66085295, "ECCENTRICITY": 0.0051795, "INCLINATION": 74.0243, "RA_OF_ASC_NODE": 357.4237, "ARG_OF_PERICENTER": 118.532, "MEAN_ANOMALY": 35.1969, "EPHEMERIS_TYPE": 0, "CLASSIFICATION_TYPE": "U", "NORAD_CAT_ID": 33992, "ELEMENT_SET_NO": 999, "REV_AT_EPOCH": 88975, "BSTAR": 0.00085268, "MEAN_MOTION_DOT": 4.747e-05, "MEAN_MOTION_DDOT": 0}, "tle": {"line1": "1 33992U 93036GB  25336.53237463  .00004747  00000+0  85268-3 0  9992", "line2": "2 33992  74.0243 357.4237 0051795 118.5320  35.1969 14.66085295889752"}}, "geometry": {"type": "Point", "coordinates": [-1.8286277513854703, 5.617028141685182]}}, {"type": "Feature", "properties": {"norad_id": 33994, "name": "COSMOS 2251 DEB", "group": "cosmos-2251-debris", "lat": 68.06690460203869, "lon": -106.25249529850778, "alt_km": 747.55805703031, "timestamp": "2025-12-02T23:34:15.910418+00:00", "meta": {"OBJECT_NAME": "COSMOS 2251 DEB", "OBJECT_ID": "1993-036GD", "EPOCH": "2025-12-02T02:19:09.124032", "MEAN_MOTION": 14.41204074, "ECCENTRICITY": 0.00232445, "INCLINATION": 74.0427, "RA_OF_ASC_NODE": 210.1041, "ARG_OF_PERICENTER": 346.474, "MEAN_ANOMALY": 175.6605, "EPHEMERIS_TYPE": 0, "CLASSIFICATION_TYPE": "U", "NORAD_CAT_ID": 33994, "ELEMENT_SET_NO": 999, "REV_AT_EPOCH": 88266, "BSTAR": 0.00011324933, "MEAN_MOTION_DOT": 3.4e-06, "MEAN_MOTION_DDOT": 0}, "tle": {"line1": "1 33994U 93036GD  25336.09663338  .00000340  00000+0  11325-3 0  9997", "line2": "2 33994  74.0427 210.1041 0023244 346.4740 175.6605 14.41204074882663"}}, "geometry": {"type": "Point", "coordinates": [-106.25249529850778, 68.06690460203869]}}, {"type": "Feature", "properties": {"norad_id": 33995, "name": "COSMOS 2251 DEB", "group": "cosmos-2251-debris", "lat": 16.73959527415213, "lon": 142.13222320063707, "alt_km": 807.9488684771868, "timestamp": "2025-12-02T23:34:15.910429+00:00", "meta": {"OBJECT_NAME": "COSMOS 2251 DEB", "OBJECT_ID": "1993-036GE", "EPOCH": "2025-12-02T11:46:28.489728", "MEAN_MOTION": 14.34677071, "ECCENTRICITY": 0.0060957, "INCLINATION": 74.0598, "RA_OF_ASC_NODE": 138.0998, "ARG_OF_PERICENTER": 155.2632, "MEAN_ANOMALY": 205.1465, "EPHEMERIS_TYPE": 0, "CLASSIFICATION_TYPE": "U", "NORAD_CAT_ID": 33995, "ELEMENT_SET_NO": 999, "REV_AT_EPOCH": 87372, "BSTAR": 0.0013146, "MEAN_MOTION_DOT": 3.775e-05, "MEAN_MOTION_DDOT": 0}, "tle": {"line1": "1 33995U 93036GE  25336.49060752  .00003775  00000+0  13146-2 0  9990", "line2": "2 33995  74.0598 138.0998 0060957 155.2632 205.1465 14.34677071873723"}}, "geometry": {"type": "Point", "coordinates": [142.13222320063707, 16.73959527415213]}}, {"type": "Feature", "properties": {"norad_id": 33999, "name": "COSMOS 2251 DEB", "group": "cosmos-2251-debris", "lat": -73.0824480627804, "lon": 178.72343706267813, "alt_km": 645.4097681195135, "timestamp": "2025-12-02T23:34:15.910439+00:00", "meta": {"OBJECT_NAME": "COSMOS 2251 DEB", "OBJECT_ID": "1993-036GJ", "EPOCH": "2025-12-02T04:31:37.433280", "MEAN_MOTION": 14.82969215, "ECCENTRICITY": 0.0044705, "INCLINATION": 73.9199, "RA_OF_ASC_NODE": 251.8122, "ARG_OF_PERICENTER": 150.4508, "MEAN_ANOMALY": 209.9211, "EPHEMERIS_TYPE": 0, "CLASSIFICATION_TYPE": "U", "NORAD_CAT_ID": 33999, "ELEMENT_SET_NO": 999, "REV_AT_EPOCH": 89094, "BSTAR": 0.0017282, "MEAN_MOTION_DOT": 0.00014278, "MEAN_MOTION_DDOT": 0}, "tle": {"line1": "1 33999U 93036GJ  25336.18862770  .00014278  00000+0  17282-2 0  9995", "line2": "2 33999  73.9199 251.8122 0044705 150.4508 209.9211 14.82969215890948"}}, "geometry": {"type": "Point", "coordinates": [178.72343706267813, -73.0824480627804]}}]}